NORAD_CAT_ID,OBJECT_NAME,OBJECT_TYPE,EPOCH,MEAN_MOTION,ECCENTRICITY,INCLINATION,RA_OF_ASC_NODE,ARG_OF_PERICENTER,MEAN_ANOMALY,BSTAR,MEAN_MOTION_DOT,MEAN_MOTION_DDOT,TLE_LINE0,TLE_LINE1,TLE_LINE2,SEMIMAJOR_AXIS,PERIOD,APOGEE,PERIGEE,DECAYED
50172.0,STARLINK-3287,PAYLOAD,2023-09-23 11:31:11,15.0885231,0.0001362,53.2163,321.3428,78.4649,281.6496,0.0013434,0.00021164,0.0,0 STARLINK-3287,1 50172U 21125S   23266.47999365  .00021164  00000-0  13434-2 0  9998,2 50172  53.2163 321.3428 0001362  78.4649 281.6496 15.08852310101034,6917.843,95.437,540.65,538.766,0.0
50172.0,STARLINK-3287,PAYLOAD,2023-09-23 21:03:30,15.08844958,0.0001383,53.217,319.5583,86.1541,273.9609,0.00062347,9.65e-05,0.0,0 STARLINK-3287,1 50172U 21125S   23266.87743452  .00009650  00000-0  62347-3 0  9990,2 50172  53.2170 319.5583 0001383  86.1541 273.9609 15.08844958100570,6917.865,95.437,540.687,538.773,0.0
50172.0,STARLINK-3287,PAYLOAD,2023-09-24 09:46:35,15.08841579,0.0001494,53.2165,317.1782,100.3761,259.7399,0.00029547,4.418e-05,0.0,0 STARLINK-3287,1 50172U 21125S   23267.40735552  .00004418  00000-0  29547-3 0  9994,2 50172  53.2165 317.1782 0001494 100.3761 259.7399 15.08841579100658,6917.876,95.437,540.774,538.707,0.0
50172.0,STARLINK-3287,PAYLOAD,2023-09-24 14:32:44,15.08851195,0.0001153,53.2163,316.2856,95.9939,264.1185,0.00063704,9.868e-05,0.0,0 STARLINK-3287,1 50172U 21125S   23267.60607302  .00009868  00000-0  63704-3 0  9994,2 50172  53.2163 316.2856 0001153  95.9939 264.1185 15.08851195101206,6917.846,95.437,540.509,538.914,0.0
50172.0,STARLINK-3287,PAYLOAD,2023-09-25 09:37:22,15.08869548,0.0001418,53.2167,312.7196,91.8058,268.3097,0.0014601,0.00023045,0.0,0 STARLINK-3287,1 50172U 21125S   23268.40095326  .00023045  00000-0  14601-2 0  9994,2 50172  53.2167 312.7196 0001418  91.8058 268.3097 15.08869548100803,6917.79,95.436,540.636,538.674,0.0
50172.0,STARLINK-3287,PAYLOAD,2023-09-25 14:23:31,15.08864358,0.0001484,53.2167,311.8271,99.1822,260.9338,0.0016216,0.00025631,0.0,0 STARLINK-3287,1 50172U 21125S   23268.59967276  .00025631  00000-0  16216-2 0  9993,2 50172  53.2167 311.8271 0001484  99.1822 260.9338 15.08864358100833,6917.806,95.436,540.698,538.644,0.0
50172.0,STARLINK-3287,PAYLOAD,2023-09-26 03:06:37,15.08851924,0.0002233,53.2171,309.4477,77.5561,282.5681,0.0008492,0.00013257,0.0,0 STARLINK-3287,1 50172U 21125S   23269.12959657  .00013257  00000-0  84920-3 0  9996,2 50172  53.2171 309.4477 0002233  77.5561 282.5681 15.08851924100917,6917.844,95.437,541.254,538.164,0.0
50172.0,STARLINK-3287,PAYLOAD,2023-09-26 09:28:09,15.08846609,0.0001641,53.2173,308.2593,87.7502,272.3678,0.0010983,0.00017238,0.0,0 STARLINK-3287,1 50172U 21125S   23269.39455558  .00017238  00000-0  10983-2 0  9996,2 50172  53.2173 308.2593 0001641  87.7502 272.3678 15.08846609101474,6917.86,95.437,540.86,538.59,0.0
50172.0,STARLINK-3287,PAYLOAD,2023-09-27 02:57:24,15.08842266,0.00014,53.2165,304.9873,77.4176,282.6972,0.00093901,0.00014689,0.0,0 STARLINK-3287,1 50172U 21125S   23270.12319781  .00014689  00000-0  93901-3 0  9995,2 50172  53.2165 304.9873 0001400  77.4176 282.6972 15.08842266101066,6917.873,95.437,540.707,538.77,0.0
50172.0,STARLINK-3287,PAYLOAD,2023-09-27 07:43:33,15.08846604,0.0001472,53.2163,304.0957,85.632,274.4841,0.0012921,0.00020339,0.0,0 STARLINK-3287,1 50172U 21125S   23270.32191704  .00020339  00000-0  12921-2 0  9991,2 50172  53.2163 304.0957 0001472  85.6320 274.4841 15.08846604101614,6917.86,95.437,540.744,538.707,0.0
50172.0,STARLINK-3287,PAYLOAD,2023-09-28 10:45:07,15.08835956,0.000173,53.2165,299.0449,101.1115,259.0071,3.3372e-05,2.43e-06,0.0,0 STARLINK-3287,1 50172U 21125S   23271.44800268  .00000243  00000-0  33372-4 0  9994,2 50172  53.2165 299.0449 0001730 101.1115 259.0071 15.08835956101261,6917.893,95.438,540.955,538.561,0.0
50172.0,STARLINK-3287,PAYLOAD,2023-09-29 10:35:54,15.08842111,0.0001579,53.2158,294.5806,93.2543,266.863,0.00016757,2.38e-05,0.0,0 STARLINK-3287,1 50172U 21125S   23272.44160336  .00002380  00000-0  16757-3 0  9991,2 50172  53.2158 294.5806 0001579  93.2543 266.8630 15.08842111101939,6917.874,95.437,540.831,538.647,0.0
50172.0,STARLINK-3287,PAYLOAD,2023-09-29 23:18:59,15.08842984,0.0001542,53.2157,292.2011,94.1406,265.9763,0.00016488,2.337e-05,0.0,0 STARLINK-3287,1 50172U 21125S   23272.97152332  .00002337  00000-0  16488-3 0  9999,2 50172  53.2157 292.2011 0001542  94.1406 265.9763 15.08842984101495,6917.871,95.437,540.803,538.67,0.0
50172.0,STARLINK-3287,PAYLOAD,2023-09-30 05:40:31,15.08848807,0.0001545,53.2157,291.0116,95.2321,264.8847,0.00022955,3.368e-05,0.0,0 STARLINK-3287,1 50172U 21125S   23273.23647992  .00003368  00000-0  22955-3 0  9991,2 50172  53.2157 291.0116 0001545  95.2321 264.8847 15.08848807102053,6917.853,95.437,540.787,538.65,0.0
50172.0,STARLINK-3287,PAYLOAD,2023-10-01 00:45:09,15.08837063,0.0001471,53.2151,287.4415,83.2169,276.899,-1.7928e-05,-5.73e-06,0.0,0 STARLINK-3287,1 50172U 21125S   23274.03136553 -.00000573  00000-0 -17928-4 0  9998,2 50172  53.2151 287.4415 0001471  83.2169 276.8990 15.08837063101652,6917.889,95.438,540.772,538.737,0.0
50172.0,STARLINK-3287,PAYLOAD,2023-10-01 07:06:42,15.08841535,0.0001525,53.2151,286.2527,87.2723,272.8443,4.2828e-05,3.94e-06,0.0,0 STARLINK-3287,1 50172U 21125S   23274.29632385  .00000394  00000-0  42828-4 0  9996,2 50172  53.2151 286.2527 0001525  87.2723 272.8443 15.08841535102214,6917.876,95.437,540.796,538.686,0.0
50172.0,STARLINK-3287,PAYLOAD,2023-10-01 18:14:24,15.08841779,0.0001516,53.2151,284.1715,86.309,273.8076,4.843e-05,4.83e-06,0.0,0 STARLINK-3287,1 50172U 21125S   23274.76000398  .00000483  00000-0  48430-4 0  9995,2 50172  53.2151 284.1715 0001516  86.3090 273.8076 15.08841779102287,6917.875,95.437,540.789,538.691,0.0
50172.0,STARLINK-3287,PAYLOAD,2023-10-02 10:08:15,15.08843317,0.0001619,53.2148,281.1962,92.8199,267.2979,8.1078e-05,1.003e-05,0.0,0 STARLINK-3287,1 50172U 21125S   23275.42240459  .00001003  00000-0  81078-4 0  9997,2 50172  53.2148 281.1962 0001619  92.8199 267.2979 15.08843317101862,6917.87,95.437,540.855,538.615,0.0
50172.0,STARLINK-3287,PAYLOAD,2023-10-02 18:05:11,15.08837436,0.0001759,53.2177,279.713,73.937,286.1816,7.9911e-05,9.84e-06,0.0,0 STARLINK-3287,1 50172U 21125S   23275.75360955  .00000984  00000-0  79911-4 0  9997,2 50172  53.2177 279.7130 0001759  73.9370 286.1816 15.08837436101911,6917.888,95.438,540.97,538.536,0.0
50172.0,STARLINK-3287,PAYLOAD,2023-10-03 11:34:25,15.08854421,0.0001573,53.2158,276.4381,94.9889,265.1283,0.0004238,6.466e-05,0.0,0 STARLINK-3287,1 50172U 21125S   23276.48224232  .00006466  00000-0  42380-3 0  9995,2 50172  53.2158 276.4381 0001573  94.9889 265.1283 15.08854421102025,6917.836,95.437,540.789,538.613,0.0
50172.0,STARLINK-3287,PAYLOAD,2023-10-04 00:17:31,15.08838767,0.0001895,53.2158,274.0594,89.7927,270.3283,0.00011709,1.576e-05,0.0,0 STARLINK-3287,1 50172U 21125S   23277.01217081  .00001576  00000-0  11709-3 0  9997,2 50172  53.2158 274.0594 0001895  89.7927 270.3283 15.08838767102109,6917.884,95.438,541.06,538.438,0.0
50172.0,STARLINK-3287,PAYLOAD,2023-10-04 11:25:13,15.0884329,0.0002097,53.2161,271.9787,75.3017,284.8208,0.00016634,2.36e-05,0.0,0 STARLINK-3287,1 50172U 21125S   23277.47584990  .00002360  00000-0  16634-3 0  9997,2 50172  53.2161 271.9787 0002097  75.3017 284.8208 15.08843290102697,6917.87,95.437,541.186,538.285,0.0
50172.0,STARLINK-3287,PAYLOAD,2023-10-05 04:54:27,15.08851613,0.000178,53.2168,268.7056,93.9913,266.1283,0.00041129,6.266e-05,0.0,0 STARLINK-3287,1 50172U 21125S   23278.20448568  .00006266  00000-0  41129-3 0  9995,2 50172  53.2168 268.7056 0001780  93.9913 266.1283 15.08851613102285,6917.845,95.437,540.941,538.479,0.0
50172.0,STARLINK-3287,PAYLOAD,2023-10-05 11:15:59,15.08870468,0.0001599,53.2158,267.5183,93.6621,266.4554,0.0014603,0.00023049,0.0,0 STARLINK-3287,1 50172U 21125S   23278.46944297  .00023049  00000-0  14603-2 0  9997,2 50172  53.2158 267.5183 0001599  93.6621 266.4554 15.08870468102848,6917.787,95.436,540.758,538.546,0.0
50172.0,STARLINK-3287,PAYLOAD,2023-10-05 16:02:09,15.0883789,0.0002266,53.2162,266.6255,86.8105,273.3146,-7.1561e-05,-1.427e-05,0.0,0 STARLINK-3287,1 50172U 21125S   23278.66817111 -.00001427  00000-0 -71561-4 0  9999,2 50172  53.2162 266.6255 0002266  86.8105 273.3146 15.08837890102358,6917.887,95.438,541.319,538.184,0.0
50172.0,STARLINK-3287,PAYLOAD,2023-10-06 04:45:14,15.08848064,0.0001573,53.2162,264.2462,98.5422,261.5749,0.00038967,5.92e-05,0.0,0 STARLINK-3287,1 50172U 21125S   23279.19808594  .00005920  00000-0  38967-3 0  9995,2 50172  53.2162 264.2462 0001573  98.5422 261.5749 15.08848064102436,6917.856,95.437,540.809,538.633,0.0
50172.0,STARLINK-3287,PAYLOAD,2023-10-06 09:31:24,15.08852637,0.0001283,53.2166,263.3562,100.1597,259.9539,0.0015158,0.00023927,0.0,0 STARLINK-3287,1 50172U 21125S   23279.39680615  .00023927  00000-0  15158-2 0  9992,2 50172  53.2166 263.3562 0001283 100.1597 259.9539 15.08852637102981,6917.842,95.437,540.594,538.819,0.0
50172.0,STARLINK-3287,PAYLOAD,2023-10-06 15:52:56,15.08847438,0.00016,53.2153,262.1662,92.6787,267.4388,0.0010821,0.00016979,0.0,0 STARLINK-3287,1 50172U 21125S   23279.66177005  .00016979  00000-0  10821-2 0  9997,2 50172  53.2153 262.1662 0001600  92.6787 267.4388 15.08847438102501,6917.858,95.437,540.83,538.616,0.0
50172.0,STARLINK-3287,PAYLOAD,2023-10-07 10:57:34,15.08855241,0.000128,53.215,258.5982,94.455,265.6588,0.0017916,0.00028352,0.0,0 STARLINK-3287,1 50172U 21125S   23280.45665028  .00028352  00000-0  17916-2 0  9993,2 50172  53.2150 258.5982 0001280  94.4550 265.6588 15.08855241102620,6917.834,95.437,540.584,538.813,0.0
50172.0,STARLINK-3287,PAYLOAD,2023-10-08 02:51:26,15.08850195,0.000133,53.2153,255.6244,99.5727,260.5415,0.0013745,0.00021661,0.0,0 STARLINK-3287,1 50172U 21125S   23281.11905300  .00021661  00000-0  13745-2 0  9999,2 50172  53.2153 255.6244 0001330  99.5727 260.5415 15.08850195102727,6917.849,95.437,540.634,538.794,0.0
